[Satellite]
VERSION=1.1
NAME=MOLNIYA 1-49
NICKNAME=MOLNIYA 1-49
TLE1=1 12156U 81009A   20157.37300688 -.00000763  00000-0  68743-2 0  9990
TLE2=2 12156  62.0965 275.5342 7225673 252.4072  22.6831  2.05711787206229
STATUS=0
